0230P         2028 08 20.6318  1.570760  0.545391  313.5883  106.9244   15.4728  20250917  13.0  4.0  230P/LINEAR                                              MPC185664
0231P         2027 08  4.0887  3.088741  0.239951   43.5999  132.7656   12.2735  20250917  14.5  2.0  231P/LINEAR-NEAT                                         MPEC 2023-SQ0
0232P         2028 09 20.6062  2.966909  0.336189   53.3253   56.0044   14.6428  20250917  11.5  4.0  232P/Hill                                                MPC112394
0233P         2026 01  8.1194  1.776712  0.413062   27.0181   74.8980   11.2888  20250917  15.0  4.0  233P/La Sagra                                            MPEC 2021-N06
0234P         2024 10 23.7097  2.820874  0.257368  357.4534  179.5614   11.5333  20250917  12.0  4.0  234P/LINEAR                                              MPC185664
0235P         2025 12 22.6543  1.977952  0.425984  352.1879  200.1707    9.8131  20250917  12.0  4.0  235P/LINEAR                                              MPC186636
0236P         2025 02  3.8970  1.828213  0.509546  119.4509  245.5667   16.3524  20250917  14.0  4.0  236P/LINEAR                                              MPEC 2024-P23
0237P         2023 05 13.9946  1.998001  0.432125   25.5647  245.3588   14.0049  20250917  14.5  2.0  237P/LINEAR                                              MPC182890
0238P         2028 01 24.1496  2.374270  0.250500  324.2601   51.6506    1.2636  20250917  14.5  4.0  238P/Read                                                MPEC 2024-L77
0239P         2028 06 17.6462  1.644436  0.631570  220.3972  255.9319   11.3061  20250917  17.5  2.0  239P/LINEAR                                              MPEC 2021-F20
0240P         2025 12 19.9412  2.121687  0.450505  352.0747   74.9114   23.5371  20250917  11.0  4.0  240P/NEAT                                                MPEC 2025-S35
0241P         2021 07 26.1635  1.921837  0.610036  111.6314  305.4093   21.0952  20250917  13.5  4.0  241P/LINEAR                                              MPEC 2022-J42
0242P         2024 12 23.5019  3.971822  0.282872  245.0267  180.2111   32.4247  20250917   8.0  4.0  242P/Spahr                                               MPC185665
0243P         2026 02 25.5749  2.448000  0.360221  283.7825   87.5767    7.6445  20250917  12.5  4.0  243P/NEAT                                                MPEC 2025-S35
0244P         2022 11 20.3752  3.925262  0.199793   93.5565  354.0043    2.2574  20250917   9.0  4.0  244P/Scotti                                              MPEC 2024-L77
0245P         2026 03 31.1686  2.205555  0.455853  316.4944  316.8832   21.1711  20250917  14.0  4.0  245P/WISE                                                MPEC 2022-CN4
0246P         2029 10 26.9832  3.385910  0.215320  185.2368   74.1321   17.3596  20250917  10.5  4.0  246P/NEAT                                                MPEC 2024-YC7
0247P         2026 10 25.9552  1.483859  0.625608   47.5199   53.9818   13.6582  20250917  16.5  2.0  247P/LINEAR                                              MPEC 2021-F20
0248P         2025 09 14.9455  2.157717  0.639444  209.9959  207.7953    6.3515  20250917  14.0  4.0  248P/Gibbs                                               MPEC 2025-R69
0249P         2025 02  1.7182  0.499717  0.819422   65.7883  239.0226    8.3798  20250917  15.5  4.0  249P/LINEAR                                              MPEC 2022-YN2
0250P         2025 05 16.7073  2.272317  0.398205   45.7015   73.3006   13.1518  20250917  14.5  4.0  250P/Larson                                              MPC182890
0251P         2024 02 13.0965  1.741133  0.504170   31.1843  219.3370   23.3890  20250917  16.5  2.0  251P/LINEAR                                              MPEC 2024-TD8
0252P         2026 11  7.6980  1.003592  0.671100  343.3724  190.9068   10.4204  20250917  17.5  4.0  252P/LINEAR                                              MPEC 2021-S45
0253P         2024 10 21.0216  2.025518  0.415453  230.8333  146.8095    4.9474  20250917  14.5  4.0  253P/PANSTARRS                                           MPC182890
0254P         2030 09  3.5566  3.149409  0.318368  219.7138  129.1770   32.5370  20250917  11.0  4.0  254P/McNaught                                            MPC184419
0255P         2027 09 25.5325  0.847083  0.712089  186.0490  275.6370   13.4057  20250917  20.0  4.0  255P/Levy                                                NK   2214
0256P         2023 03 11.9598  2.696815  0.418097  124.0510   81.3213   27.6230  20250917  14.0  2.0  256P/LINEAR                                              MPEC 2024-L77
0257P         2028 01  1.6808  2.152803  0.428713  117.7111  207.7305   20.2146  20250917  11.5  4.0  257P/Catalina                                            MPEC 2023-A50
0258P         2029 08 28.7251  3.468102  0.209689   25.6256  126.2367    6.7512  20250917  13.0  4.0  258P/PANSTARRS                                           MPEC 2021-U31
0259P         2026 08 12.1388  1.805017  0.338727  257.4753   51.3738   15.8979  20250917  15.5  4.0  259P/Garradd                                             MPC106349
0260P         2026 08  5.0094  1.417759  0.608741   18.4956  349.2989   15.0425  20250917  13.5  4.0  260P/McNaught                                            MPEC 2022-O01
0261P         2025 12 27.4140  2.014202  0.422736   67.3666  291.0507    6.0734  20250917  14.0  4.0  261P/Larson                                              MPEC 2025-S35
0262P         2030 12 15.3533  1.264794  0.815878  171.0697  217.8851   29.2411  20250917  13.5  4.0  262P/McNaught-Russell                                    MPC 82322
0263P         2023 01 31.0261  1.234097  0.594141   35.0234  105.5044   11.5269  20250917  18.0  4.0  263P/Gibbs                                               MPEC 2024-L77
0264P         2027 03 15.6427  2.659244  0.340161  341.1607  219.0695   25.1163  20250917  13.0  4.0  264P/Larsen                                              MPC114608
0265P         2029 11 26.3816  1.505972  0.646584   33.5712  342.9143   14.3381  20250917  14.5  4.0  265P/LINEAR                                              MPC 79870
0266P         2026 12  7.3444  2.324744  0.340970   97.8110    4.9457    3.4285  20250917  12.5  4.0  266P/Christensen                                         MPEC 2021-F20
0267P         2024 04 25.0168  1.234107  0.615174  114.1991  228.5088    6.1389  20250917  19.5  4.0  267P/LONEOS                                              MPC114608
0268P         2024 12 18.5062  2.412812  0.474510    0.0271  125.6311   15.6613  20250917  14.0  4.0  268P/Bernardi                                            MPC185665
0269P         2033 07 11.4361  3.997214  0.433630  225.7532  241.7596    7.0835  20250917  10.0  4.0  269P/Jedicke                                             MPEC 2023-J29
0270P         2030 08 16.8652  3.522325  0.470191  209.9528  223.0188    2.9246  20250917   8.0  4.0  270P/Gehrels                                             MPC 88332
0271P         2032 03 22.2885  4.249229  0.395773   36.6393    9.2679    6.8660  20250917  11.0  4.0  271P/van Houten-Lemmon                                   MPC 92277
0272P         2022 07 17.6570  2.429146  0.455589   27.8928  109.4391   18.0832  20250917  16.0  2.0  272P/NEAT                                                MPEC 2023-D41
0273P         2012 12 21.7034  0.812309  0.974541   20.1080  320.3793  136.3280  20250917  11.5  4.0  273P/Pons-Gambart                                        MPC 82723
0274P         2022 04  9.3429  2.450641  0.440304   38.5022   81.3172   15.8202  20250917  13.0  4.0  274P/Tombaugh-Tenagra                                    MPEC 2024-GJ3
0275P         2026 10 27.9423  1.659132  0.713843  173.8878  348.6822   21.2535  20250917  15.0  4.0  275P/Hermann                                             MPC 81862
0276P         2024 12 11.5586  3.898587  0.274903  199.5136  211.1663   14.7548  20250917  11.5  4.0  276P/Vorobjov                                            MPC184419
0277P         2028 07 25.9657  1.902210  0.506373  152.4448  276.2596   16.7935  20250917  14.0  4.0  277P/LINEAR                                              MPEC 2021-F20
0278P         2027 09 14.6019  1.983050  0.453611  241.8182   11.6684    6.6184  20250917  14.0  4.0  278P/McNaught                                            MPEC 2021-S45
0279P         2023 04 18.6781  2.142096  0.399537    5.6063  346.0956    5.0537  20250917  14.0  4.0  279P/LaSagra                                             MPEC 2024-A43
0280P         2023 08  4.3616  2.637968  0.416870  104.6158  131.3787   11.7755  20250917  12.5  4.0  280P/Larsen                                              MPEC 2024-RQ6
0281P         2023 02  4.6109  4.037385  0.173944   27.0620   87.1665    4.7176  20250917  11.0  4.0  281P/MOSS                                                MPEC 2023-D41
0283P         2021 09  8.6149  2.126972  0.485151   22.1439  161.1253   14.4699  20250917  16.0  2.0  283P/Spacewatch                                          MPEC 2022-K19
0284P         2028 10  1.6614  2.302389  0.374219  202.4555  144.2621   11.8523  20250917  13.0  4.0  284P/McNaught                                            MPEC 2024-D33
0285P         2023 01 11.6873  1.721052  0.617986  178.3814  185.5157   25.0313  20250917  15.0  4.0  285P/LINEAR                                              MPEC 2024-L77
0286P         2022 05 13.3422  2.306629  0.433195   23.7794  283.5826   17.2473  20250917  14.0  4.0  286P/Christensen                                         MPEC 2024-LE0
0287P         2023 07 12.2729  3.051716  0.272625  190.9977  138.5216   16.3765  20250917  13.5  4.0  287P/Christensen                                         MPEC 2025-A40
0288P         2027 06 29.0342  2.442071  0.199524  280.2746   83.1067    3.2382  20250917  16.0  2.0  288P                                                     MPC133426
